SXODC_L_00002262-36
1 99564U 26696TE  26070.40856481  .00000000  00000+0  00000-0 0  9992
2 99564  30.0000 278.8131 0000000   0.0000 304.7834 15.38683946    11
SXODC_L_00002262-37
1 99565U 23221WN  26070.40856481  .00000000  00000+0  00000-0 0  9994
2 99565  30.0000 278.8131 0000000   0.0000 312.7834 15.38683946    11
SXODC_L_00002262-38
1 99566U 23894AL  26070.40856481  .00000000  00000+0  00000-0 0  9991
2 99566  30.0000 278.8131 0000000   0.0000 320.7834 15.38683946    11
SXODC_L_00002262-39
1 99567U 24179EZ  26070.40856481  .00000000  00000+0  00000-0 0  9999
2 99567  30.0000 278.8131 0000000   0.0000 328.7834 15.38683946    10
SXODC_L_00002262-40
1 99568U 23722PK  26070.40856481  .00000000  00000+0  00000-0 0  9993
2 99568  30.0000 278.8131 0000000   0.0000 336.7834 15.38683946    10
SXODC_L_00002262-41
1 99569U 24960T   26070.40856481  .00000000  00000+0  00000-0 0  9999
2 99569  30.0000 278.8131 0000000   0.0000 344.7834 15.38683946    10
SXODC_L_00002262-42
1 99570U 22798IE  26070.40856481  .00000000  00000+0  00000-0 0  9998
2 99570  30.0000 278.8131 0000000   0.0000 352.7834 15.38683946    11
SXODC_L_00002262-43
1 99571U 23737OY  26070.40856481  .00000000  00000+0  00000-0 0  9993
2 99571  30.0000 278.8131 0000000   0.0000   0.7834 15.38683946    12
SXODC_L_00002262-44
1 99572U 26150ZI  26070.40856481  .00000000  00000+0  00000-0 0  9996
2 99572  30.0000 278.8131 0000000   0.0000   8.7834 15.38683946    11
SXODC_L_00002262-45
1 99573U 24341FN  26070.40856481  .00000000  00000+0  00000-0 0  9997
2 99573  30.0000 278.8131 0000000   0.0000  16.7834 15.38683946    11
SXODC_L_00002263-01
1 99574U 22702DK  26070.40856481  .00000000  00000+0  00000-0 0  9997
2 99574  30.0000 279.8813 0000000   0.0000  24.8783 15.38683946    13
SXODC_L_00002263-02
1 99575U 22417UE  26070.40856481  .00000000  00000+0  00000-0 0  9991
2 99575  30.0000 279.8813 0000000   0.0000  32.8783 15.38683946    13
SXODC_L_00002263-03
1 99576U 23365IW  26070.40856481  .00000000  00000+0  00000-0 0  9995
2 99576  30.0000 279.8813 0000000   0.0000  40.8783 15.38683946    13
SXODC_L_00002263-04
1 99577U 25718YV  26070.40856481  .00000000  00000+0  00000-0 0  9990
2 99577  30.0000 279.8813 0000000   0.0000  48.8783 15.38683946    12
SXODC_L_00002263-05
1 99578U 25719DL  26070.40856481  .00000000  00000+0  00000-0 0  9992
2 99578  30.0000 279.8813 0000000   0.0000  56.8783 15.38683946    12
SXODC_L_00002263-06
1 99579U 24301SA  26070.40856481  .00000000  00000+0  00000-0 0  9999
2 99579  30.0000 279.8813 0000000   0.0000  64.8783 15.38683946    12
SXODC_L_00002263-07
1 99580U 22111WS  26070.40856481  .00000000  00000+0  00000-0 0  9998
2 99580  30.0000 279.8813 0000000   0.0000  72.8783 15.38683946    13
SXODC_L_00002263-08
1 99581U 23767KX  26070.40856481  .00000000  00000+0  00000-0 0  9997
2 99581  30.0000 279.8813 0000000   0.0000  80.8783 15.38683946    13
SXODC_L_00002263-09
1 99582U 23512TF  26070.40856481  .00000000  00000+0  00000-0 0  9996
2 99582  30.0000 279.8813 0000000   0.0000  88.8783 15.38683946    12
SXODC_L_00002263-10
1 99583U 22729CW  26070.40856481  .00000000  00000+0  00000-0 0  9996
2 99583  30.0000 279.8813 0000000   0.0000  96.8783 15.38683946    12
SXODC_L_00002263-11
1 99584U 23815Z   26070.40856481  .00000000  00000+0  00000-0 0  9994
2 99584  30.0000 279.8813 0000000   0.0000 104.8783 15.38683946    13
SXODC_L_00002263-12
1 99585U 22294ZZ  26070.40856481  .00000000  00000+0  00000-0 0  9995
2 99585  30.0000 279.8813 0000000   0.0000 112.8783 15.38683946    13
SXODC_L_00002263-13
1 99586U 22399JS  26070.40856481  .00000000  00000+0  00000-0 0  9992
2 99586  30.0000 279.8813 0000000   0.0000 120.8783 15.38683946    13
SXODC_L_00002263-14
1 99587U 24268YP  26070.40856481  .00000000  00000+0  00000-0 0  9990
2 99587  30.0000 279.8813 0000000   0.0000 128.8783 15.38683946    12
SXODC_L_00002263-15
1 99588U 25880IC  26070.40856481  .00000000  00000+0  00000-0 0  9992
2 99588  30.0000 279.8813 0000000   0.0000 136.8783 15.38683946    12
SXODC_L_00002263-16
1 99589U 22300YH  26070.40856481  .00000000  00000+0  00000-0 0  9997
2 99589  30.0000 279.8813 0000000   0.0000 144.8783 15.38683946    12
SXODC_L_00002263-17
1 99590U 25484LL  26070.40856481  .00000000  00000+0  00000-0 0  9995
2 99590  30.0000 279.8813 0000000   0.0000 152.8783 15.38683946    13
SXODC_L_00002263-18
1 99591U 24582IU  26070.40856481  .00000000  00000+0  00000-0 0  9994
2 99591  30.0000 279.8813 0000000   0.0000 160.8783 15.38683946    13
SXODC_L_00002263-19
1 99592U 22207ZJ  26070.40856481  .00000000  00000+0  00000-0 0  9997
2 99592  30.0000 279.8813 0000000   0.0000 168.8783 15.38683946    12
SXODC_L_00002263-20
1 99593U 22459PZ  26070.40856481  .00000000  00000+0  00000-0 0  9997
2 99593  30.0000 279.8813 0000000   0.0000 176.8783 15.38683946    12
SXODC_L_00002263-21
1 99594U 22115P   26070.40856481  .00000000  00000+0  00000-0 0  9997
2 99594  30.0000 279.8813 0000000   0.0000 184.8783 15.38683946    12
SXODC_L_00002263-22
1 99595U 24252YE  26070.40856481  .00000000  00000+0  00000-0 0  9992
2 99595  30.0000 279.8813 0000000   0.0000 192.8783 15.38683946    12
SXODC_L_00002263-23
1 99596U 26695AB  26070.40856481  .00000000  00000+0  00000-0 0  9996
2 99596  30.0000 279.8813 0000000   0.0000 200.8783 15.38683946    13
SXODC_L_00002263-24
1 99597U 26794RL  26070.40856481  .00000000  00000+0  00000-0 0  9997
2 99597  30.0000 279.8813 0000000   0.0000 208.8783 15.38683946    12
SXODC_L_00002263-25
1 99598U 24594SY  26070.40856481  .00000000  00000+0  00000-0 0  9994
2 99598  30.0000 279.8813 0000000   0.0000 216.8783 15.38683946    12
SXODC_L_00002263-26
1 99599U 26713QP  26070.40856481  .00000000  00000+0  00000-0 0  9990
2 99599  30.0000 279.8813 0000000   0.0000 224.8783 15.38683946    12
SXODC_L_00002263-27
1 99600U 22315AL  26070.40856481  .00000000  00000+0  00000-0 0  9997
2 99600  30.0000 279.8813 0000000   0.0000 232.8783 15.38683946    14
SXODC_L_00002263-28
1 99601U 24323OE  26070.40856481  .00000000  00000+0  00000-0 0  9999
2 99601  30.0000 279.8813 0000000   0.0000 240.8783 15.38683946    14
SXODC_L_00002263-29
1 99602U 26304VP  26070.40856481  .00000000  00000+0  00000-0 0  9991
2 99602  30.0000 279.8813 0000000   0.0000 248.8783 15.38683946    13
SXODC_L_00002263-30
1 99603U 26296DL  26070.40856481  .00000000  00000+0  00000-0 0  9992
2 99603  30.0000 279.8813 0000000   0.0000 256.8783 15.38683946    13
SXODC_L_00002263-31
1 99604U 22421WY  26070.40856481  .00000000  00000+0  00000-0 0  9999
2 99604  30.0000 279.8813 0000000   0.0000 264.8783 15.38683946    13
SXODC_L_00002263-32
1 99605U 26416XH  26070.40856481  .00000000  00000+0  00000-0 0  9998
2 99605  30.0000 279.8813 0000000   0.0000 272.8783 15.38683946    13
SXODC_L_00002263-33
1 99606U 25041AB  26070.40856481  .00000000  00000+0  00000-0 0  9992
2 99606  30.0000 279.8813 0000000   0.0000 280.8783 15.38683946    13
SXODC_L_00002263-34
1 99607U 24192BA  26070.40856481  .00000000  00000+0  00000-0 0  9999
2 99607  30.0000 279.8813 0000000   0.0000 288.8783 15.38683946    12
SXODC_L_00002263-35
1 99608U 26318JU  26070.40856481  .00000000  00000+0  00000-0 0  9992
2 99608  30.0000 279.8813 0000000   0.0000 296.8783 15.38683946    12
SXODC_L_00002263-36
1 99609U 23632BH  26070.40856481  .00000000  00000+0  00000-0 0  9999
2 99609  30.0000 279.8813 0000000   0.0000 304.8783 15.38683946    13
SXODC_L_00002263-37
1 99610U 26085DU  26070.40856481  .00000000  00000+0  00000-0 0  9996
2 99610  30.0000 279.8813 0000000   0.0000 312.8783 15.38683946    14
SXODC_L_00002263-38
1 99611U 25830CV  26070.40856481  .00000000  00000+0  00000-0 0  9994
2 99611  30.0000 279.8813 0000000   0.0000 320.8783 15.38683946    14
SXODC_L_00002263-39
1 99612U 23303SX  26070.40856481  .00000000  00000+0  00000-0 0  9998
2 99612  30.0000 279.8813 0000000   0.0000 328.8783 15.38683946    13
SXODC_L_00002263-40
1 99613U 24279UG  26070.40856481  .00000000  00000+0  00000-0 0  9992
2 99613  30.0000 279.8813 0000000   0.0000 336.8783 15.38683946    13
SXODC_L_00002263-41
1 99614U 24186DP  26070.40856481  .00000000  00000+0  00000-0 0  9990
2 99614  30.0000 279.8813 0000000   0.0000 344.8783 15.38683946    13
SXODC_L_00002263-42
1 99615U 25576KJ  26070.40856481  .00000000  00000+0  00000-0 0  9995
2 99615  30.0000 279.8813 0000000   0.0000 352.8783 15.38683946    13
SXODC_L_00002263-43
1 99616U 23661SX  26070.40856481  .00000000  00000+0  00000-0 0  9999
2 99616  30.0000 279.8813 0000000   0.0000   0.8783 15.38683946    14
SXODC_L_00002263-44
1 99617U 23828GB  26070.40856481  .00000000  00000+0  00000-0 0  9995
2 99617  30.0000 279.8813 0000000   0.0000   8.8783 15.38683946    13
SXODC_L_00002263-45
1 99618U 26689OO  26070.40856481  .00000000  00000+0  00000-0 0  9994
2 99618  30.0000 279.8813 0000000   0.0000  16.8783 15.38683946    13
SXODC_L_00002264-01
1 99619U 25362O   26070.40856481  .00000000  00000+0  00000-0 0  9992
2 99619  30.0000 280.9496 0000000   0.0000  24.9733 15.38683946    19
SXODC_L_00002264-02
1 99620U 26465FC  26070.40856481  .00000000  00000+0  00000-0 0  9999
2 99620  30.0000 280.9496 0000000   0.0000  32.9733 15.38683946    10
SXODC_L_00002264-03
1 99621U 24937BK  26070.40856481  .00000000  00000+0  00000-0 0  9992
2 99621  30.0000 280.9496 0000000   0.0000  40.9733 15.38683946    10
SXODC_L_00002264-04
1 99622U 24339RT  26070.40856481  .00000000  00000+0  00000-0 0  9999
2 99622  30.0000 280.9496 0000000   0.0000  48.9733 15.38683946    19
SXODC_L_00002264-05
1 99623U 25161SM  26070.40856481  .00000000  00000+0  00000-0 0  9994
2 99623  30.0000 280.9496 0000000   0.0000  56.9733 15.38683946    19
SXODC_L_00002264-06
1 99624U 22289BC  26070.40856481  .00000000  00000+0  00000-0 0  9993
2 99624  30.0000 280.9496 0000000   0.0000  64.9733 15.38683946    19
SXODC_L_00002264-07
1 99625U 23308VZ  26070.40856481  .00000000  00000+0  00000-0 0  9997
2 99625  30.0000 280.9496 0000000   0.0000  72.9733 15.38683946    19
